{"type": "FeatureCollection", "features": [ {"type": "Feature", "properties": {"norad_id": 44804, "name": "CARTOSAT-3", "group": "resource", "lat": -18.5908015950988, "lon": 56.866352114628455, "alt_km": 511.03504237313155, "timestamp": "2025-12-20T20:38:44.101861+00:00", "meta": {"OBJECT_NAME": "CARTOSAT-3", "OBJECT_ID": "2019-081A", "EPOCH": "2025-12-20T14:24:17.228160", "MEAN_MOTION": 15.19214799, "ECCENTRICITY": 0.00139605, "INCLINATION": 97.4578, "RA_OF_ASC_NODE": 54.0843, "ARG_OF_PERICENTER": 58.3926, "MEAN_ANOMALY": 301.8669, "EPHEMERIS_TYPE": 0, "CLASSIFICATION_TYPE": "U", "NORAD_CAT_ID": 44804, "ELEMENT_SET_NO": 999, "REV_AT_EPOCH": 33635, "BSTAR": 0.00020954723, "MEAN_MOTION_DOT": 4.354e-05, "MEAN_MOTION_DDOT": 0}, "tle": {"line1": "1 44804U 19081A   25354.60019940  .00004354  00000+0  20955-3 0  9996", "line2": "2 44804  97.4578  54.0843 0013960  58.3926 301.8669 15.19214799336359"}}, "geometry": {"type": "Point", "coordinates": [56.866352114628455, -18.5908015950988]}}, {"type": "Feature", "properties": {"norad_id": 44819, "name": "GAOFEN-12 01", "group": "resource", "lat": 40.28810620384493, "lon": -5.755522169930166, "alt_km": 625.2393795721418, "timestamp": "2025-12-20T20:38:44.101871+00:00", "meta": {"OBJECT_NAME": "GAOFEN-12 01", "OBJECT_ID": "2019-082A", "EPOCH": "2025-12-20T13:58:28.484832", "MEAN_MOTION": 14.80665723, "ECCENTRICITY": 0.00018315, "INCLINATION": 97.8124, "RA_OF_ASC_NODE": 0.6574, "ARG_OF_PERICENTER": 194.5448, "MEAN_ANOMALY": 165.5712, "EPHEMERIS_TYPE": 0, "CLASSIFICATION_TYPE": "U", "NORAD_CAT_ID": 44819, "ELEMENT_SET_NO": 999, "REV_AT_EPOCH": 32766, "BSTAR": 4.8850467e-05, "MEAN_MOTION_DOT": 3.25e-06, "MEAN_MOTION_DDOT": 0}, "tle": {"line1": "1 44819U 19082A   25354.58227413  .00000325  00000+0  48850-4 0  9995", "line2": "2 44819  97.8124   0.6574 0001831 194.5448 165.5712 14.80665723327662"}}, "geometry": {"type": "Point", "coordinates": [-5.755522169930166, 40.28810620384493]}}, {"type": "Feature", "properties": {"norad_id": 44873, "name": "CSG-1", "group": "resource", "lat": -15.350266416251543, "lon": -6.117040835845824, "alt_km": 627.6845353644321, "timestamp": "2025-12-20T20:38:44.101881+00:00", "meta": {"OBJECT_NAME": "CSG-1", "OBJECT_ID": "2019-092A", "EPOCH": "2025-12-20T14:54:22.143168", "MEAN_MOTION": 14.82149991, "ECCENTRICITY": 0.00014746, "INCLINATION": 97.8803, "RA_OF_ASC_NODE": 175.8265, "ARG_OF_PERICENTER": 86.1146, "MEAN_ANOMALY": 274.0236, "EPHEMERIS_TYPE": 0, "CLASSIFICATION_TYPE": "U", "NORAD_CAT_ID": 44873, "ELEMENT_SET_NO": 999, "REV_AT_EPOCH": 32502, "BSTAR": 5.6408586e-05, "MEAN_MOTION_DOT": 3.97e-06, "MEAN_MOTION_DDOT": 0}, "tle": {"line1": "1 44873U 19092A   25354.62108962  .00000397  00000+0  56409-4 0  9996", "line2": "2 44873  97.8803 175.8265 0001474  86.1146 274.0236 14.82149991325023"}}, "geometry": {"type": "Point", "coordinates": [-6.117040835845824, -15.350266416251543]}}, {"type": "Feature", "properties": {"norad_id": 46277, "name": "NEMO-HD", "group": "resource", "lat": -72.76073305933708, "lon": -150.25904547279634, "alt_km": 452.8765797877086, "timestamp": "2025-12-20T20:38:44.101891+00:00", "meta": {"OBJECT_NAME": "NEMO-HD", "OBJECT_ID": "2020-061F", "EPOCH": "2025-12-20T14:52:05.224224", "MEAN_MOTION": 15.40477778, "ECCENTRICITY": 0.0001366, "INCLINATION": 97.2202, "RA_OF_ASC_NODE": 53.6177, "ARG_OF_PERICENTER": 51.7415, "MEAN_ANOMALY": 308.3955, "EPHEMERIS_TYPE": 0, "CLASSIFICATION_TYPE": "U", "NORAD_CAT_ID": 46277, "ELEMENT_SET_NO": 999, "REV_AT_EPOCH": 29445, "BSTAR": 0.00017418897, "MEAN_MOTION_DOT": 6.977e-05, "MEAN_MOTION_DDOT": 0}, "tle": {"line1": "1 46277U 20061F   25354.61950491  .00006977  00000+0  17419-3 0  9992", "line2": "2 46277  97.2202  53.6177 0001366  51.7415 308.3955 15.40477778294455"}}, "geometry": {"type": "Point", "coordinates": [-150.25904547279634, -72.76073305933708]}}, {"type": "Feature", "properties": {"norad_id": 46984, "name": "SENTINEL-6A", "group": "resource", "lat": 63.390687714759345, "lon": -97.13019551422913, "alt_km": 1336.480282391557, "timestamp": "2025-12-20T20:38:44.101901+00:00", "meta": {"OBJECT_NAME": "SENTINEL-6A", "OBJECT_ID": "2020-086A", "EPOCH": "2025-12-20T10:44:46.006944", "MEAN_MOTION": 12.80930851, "ECCENTRICITY": 0.00077153, "INCLINATION": 66.0394, "RA_OF_ASC_NODE": 146.2981, "ARG_OF_PERICENTER": 269.3182, "MEAN_ANOMALY": 90.6949, "EPHEMERIS_TYPE": 0, "CLASSIFICATION_TYPE": "U", "NORAD_CAT_ID": 46984, "ELEMENT_SET_NO": 999, "REV_AT_EPOCH": 23743, "BSTAR": -3.1256147e-05, "MEAN_MOTION_DOT": -6.8e-07, "MEAN_MOTION_DDOT": 0}, "tle": {"line1": "1 46984U 20086A   25354.44775471 -.00000068  00000+0 -31256-4 0  9991", "line2": "2 46984  66.0394 146.2981 0007715 269.3182  90.6949 12.80930851237436"}}, "geometry": {"type": "Point", "coordinates": [-97.13019551422913, 63.390687714759345]}}, {"type": "Feature", "properties": {"norad_id": 48079, "name": "GAOFEN-12 02", "group": "resource", "lat": 51.960835845136295, "lon": -21.508395241627003, "alt_km": 620.2014635329315, "timestamp": "2025-12-20T20:38:44.101911+00:00", "meta": {"OBJECT_NAME": "GAOFEN-12 02", "OBJECT_ID": "2021-026A", "EPOCH": "2025-12-20T13:55:16.049568", "MEAN_MOTION": 14.80683563, "ECCENTRICITY": 0.00036017, "INCLINATION": 97.9854, "RA_OF_ASC_NODE": 348.5487, "ARG_OF_PERICENTER": 85.3951, "MEAN_ANOMALY": 274.7672, "EPHEMERIS_TYPE": 0, "CLASSIFICATION_TYPE": "U", "NORAD_CAT_ID": 48079, "ELEMENT_SET_NO": 999, "REV_AT_EPOCH": 25533, "BSTAR": 4.9119381e-05, "MEAN_MOTION_DOT": 3.25e-06, "MEAN_MOTION_DDOT": 0}, "tle": {"line1": "1 48079U 21026A   25354.58004687  .00000325  00000+0  49119-4 0  9993", "line2": "2 48079  97.9854 348.5487 0003601  85.3951 274.7672 14.80683563255339"}}, "geometry": {"type": "Point", "coordinates": [-21.508395241627003, 51.960835845136295]}}, {"type": "Feature", "properties": {"norad_id": 48268, "name": "PLEIADES NEO 3", "group": "resource", "lat": 30.896492215616355, "lon": -108.05147628437, "alt_km": 621.9104746490584, "timestamp": "2025-12-20T20:38:44.101921+00:00", "meta": {"OBJECT_NAME": "PLEIADES NEO 3", "OBJECT_ID": "2021-034A", "EPOCH": "2025-12-20T15:06:52.430400", "MEAN_MOTION": 14.81674023, "ECCENTRICITY": 0.00013794, "INCLINATION": 97.8951, "RA_OF_ASC_NODE": 66.9581, "ARG_OF_PERICENTER": 89.7848, "MEAN_ANOMALY": 270.3523, "EPHEMERIS_TYPE": 0, "CLASSIFICATION_TYPE": "U", "NORAD_CAT_ID": 48268, "ELEMENT_SET_NO": 999, "REV_AT_EPOCH": 25121, "BSTAR": 8.829173e-05, "MEAN_MOTION_DOT": 6.43e-06, "MEAN_MOTION_DDOT": 0}, "tle": {"line1": "1 48268U 21034A   25354.62977350  .00000643  00000+0  88292-4 0  9991", "line2": "2 48268  97.8951  66.9581 0001379  89.7848 270.3523 14.81674023251217"}}, "geometry": {"type": "Point", "coordinates": [-108.05147628437, 30.896492215616355]}}, {"type": "Feature", "properties": {"norad_id": 49070, "name": "PLEIADES NEO 4", "group": "resource", "lat": -31.063790997374973, "lon": 71.97627461081667, "alt_km": 630.5697000331047, "timestamp": "2025-12-20T20:38:44.101931+00:00", "meta": {"OBJECT_NAME": "PLEIADES NEO 4", "OBJECT_ID": "2021-073E", "EPOCH": "2025-12-20T14:18:13.956768", "MEAN_MOTION": 14.81672959, "ECCENTRICITY": 0.00013239, "INCLINATION": 97.8952, "RA_OF_ASC_NODE": 66.9208, "ARG_OF_PERICENTER": 90.1879, "MEAN_ANOMALY": 269.9486, "EPHEMERIS_TYPE": 0, "CLASSIFICATION_TYPE": "U", "NORAD_CAT_ID": 49070, "ELEMENT_SET_NO": 999, "REV_AT_EPOCH": 23492, "BSTAR": -1.0638883e-05, "MEAN_MOTION_DOT": -1.36e-06, "MEAN_MOTION_DDOT": 0}, "tle": {"line1": "1 49070U 21073E   25354.59599487 -.00000136  00000+0 -10639-4 0  9992", "line2": "2 49070  97.8952  66.9208 0001323  90.1879 269.9486 14.81672959234922"}}, "geometry": {"type": "Point", "coordinates": [71.97627461081667, -31.063790997374973]}}, {"type": "Feature", "properties": {"norad_id": 49260, "name": "LANDSAT 9", "group": "resource", "lat": -11.674108248450343, "lon": 64.56229565847266, "alt_km": 707.0483941512712, "timestamp": "2025-12-20T20:38:44.101941+00:00", "meta": {"OBJECT_NAME": "LANDSAT 9", "OBJECT_ID": "2021-088A", "EPOCH": "2025-12-20T04:13:07.784256", "MEAN_MOTION": 14.57105039, "ECCENTRICITY": 0.0001104, "INCLINATION": 98.2085, "RA_OF_ASC_NODE": 62.1788, "ARG_OF_PERICENTER": 91.1503, "MEAN_ANOMALY": 268.9822, "EPHEMERIS_TYPE": 0, "CLASSIFICATION_TYPE": "U", "NORAD_CAT_ID": 49260, "ELEMENT_SET_NO": 999, "REV_AT_EPOCH": 22493, "BSTAR": 7.8911172e-05, "MEAN_MOTION_DOT": 3.1e-06, "MEAN_MOTION_DDOT": 0}, "tle": {"line1": "1 49260U 21088A   25354.17578454  .00000310  00000+0  78911-4 0  9993", "line2": "2 49260  98.2085  62.1788 0001104  91.1503 268.9822 14.57105039224934"}}, "geometry": {"type": "Point", "coordinates": [64.56229565847266, -11.674108248450343]}}, {"type": "Feature", "properties": {"norad_id": 51444, "name": "CSG-2", "group": "resource", "lat": 15.095867690975876, "lon": 173.91940918324644, "alt_km": 623.033899129694, "timestamp": "2025-12-20T20:38:44.101951+00:00", "meta": {"OBJECT_NAME": "CSG-2", "OBJECT_ID": "2022-008A", "EPOCH": "2025-12-20T14:05:45.533184", "MEAN_MOTION": 14.82149783, "ECCENTRICITY": 0.00014357, "INCLINATION": 97.8797, "RA_OF_ASC_NODE": 175.7917, "ARG_OF_PERICENTER": 84.2787, "MEAN_ANOMALY": 275.8589, "EPHEMERIS_TYPE": 0, "CLASSIFICATION_TYPE": "U", "NORAD_CAT_ID": 51444, "ELEMENT_SET_NO": 999, "REV_AT_EPOCH": 21013, "BSTAR": 2.0494216e-05, "MEAN_MOTION_DOT": 1.11e-06, "MEAN_MOTION_DDOT": 0}, "tle": {"line1": "1 51444U 22008A   25354.58733256  .00000111  00000+0  20494-4 0  9993", "line2": "2 51444  97.8797 175.7917 0001435  84.2787 275.8589 14.82149783210131"}}, "geometry": {"type": "Point", "coordinates": [173.91940918324644, 15.095867690975876]}}]}